{
    "links": {
        "self": "http://www.neowsapp.com/rest/v1/neo/3516409?api_key=iIulBulltgU6a56xZRHN4H3l9WmuAYTsLGpBGhQ2"
    },
    "id": "3516409",
    "neo_reference_id": "3516409",
    "name": "(2010 GL65)",
    "designation": "2010 GL65",
    "nasa_jpl_url": "http://ssd.jpl.nasa.gov/sbdb.cgi?sstr=3516409",
    "absolute_magnitude_h": 25.3,
    "estimated_diameter": {
        "kilometers": {
            "estimated_diameter_min": 0.0231502122,
            "estimated_diameter_max": 0.0517654482
        },
        "meters": {
            "estimated_diameter_min": 23.150212221,
            "estimated_diameter_max": 51.7654482198
        },
        "miles": {
            "estimated_diameter_min": 0.0143848705,
            "estimated_diameter_max": 0.0321655483
        },
        "feet": {
            "estimated_diameter_min": 75.9521422633,
            "estimated_diameter_max": 169.8341531374
        }
    },
    "is_potentially_hazardous_asteroid": false,
    "close_approach_data": [
        {
            "close_approach_date": "2010-04-07",
            "close_approach_date_full": "2010-Apr-07 21:05",
            "epoch_date_close_approach": 1270674300000,
            "relative_velocity": {
                "kilometers_per_second": "7.7361675825",
                "kilometers_per_hour": "27850.2032968943",
                "miles_per_hour": "17305.0332652286"
            },
            "miss_distance": {
                "astronomical": "0.0163588775",
                "lunar": "6.3636033475",
                "kilometers": "2447253.229590925",
                "miles": "1520652.643267765"
            },
            "orbiting_body": "Earth"
        }
    ],
    "orbital_data": {
        "orbit_id": "11",
        "orbit_determination_date": "2017-04-06 08:57:47",
        "first_observation_date": "2010-04-14",
        "last_observation_date": "2010-04-26",
        "data_arc_in_days": 12,
        "observations_used": 37,
        "orbit_uncertainty": "8",
        "minimum_orbit_intersection": ".0112919",
        "jupiter_tisserand_invariant": "3.778",
        "epoch_osculation": "2455305.5",
        "eccentricity": ".4861124217461776",
        "semi_major_axis": "1.912949205726141",
        "inclination": "3.397843726749194",
        "ascending_node_longitude": "203.3415341308405",
        "orbital_period": "966.3925749694748",
        "perihelion_distance": ".9830408346531796",
        "perihelion_argument": "329.1207161979044",
        "aphelion_distance": "2.842857576799102",
        "perihelion_time": "2455273.804968080149",
        "mean_anomaly": "11.80701485781466",
        "mean_motion": ".3725194184272072",
        "equinox": "J2000",
        "orbit_class": {
            "orbit_class_type": "APO",
            "orbit_class_description": "Near-Earth asteroid orbits which cross the Earth’s orbit similar to that of 1862 Apollo",
            "orbit_class_range": "a (semi-major axis) > 1.0 AU; q (perihelion) < 1.017 AU"
        }
    },
    "is_sentry_object": false
}